{"type": "FeatureCollection", "features": [ {"type": "Feature", "properties": {"norad_id": 29906, "name": "FENGYUN 1C DEB", "group": "fengyun-1c-debris", "lat": 34.30156671572359, "lon": 85.71204951383984, "alt_km": 733.2280008599582, "timestamp": "2025-12-14T07:33:19.749643+00:00", "meta": {"OBJECT_NAME": "FENGYUN 1C DEB", "OBJECT_ID": "1999-025HC", "EPOCH": "2025-12-13T13:10:23.993184", "MEAN_MOTION": 14.49663322, "ECCENTRICITY": 0.00369826, "INCLINATION": 98.7048, "RA_OF_ASC_NODE": 90.9209, "ARG_OF_PERICENTER": 146.8794, "MEAN_ANOMALY": 213.4725, "EPHEMERIS_TYPE": 0, "CLASSIFICATION_TYPE": "U", "NORAD_CAT_ID": 29906, "ELEMENT_SET_NO": 999, "REV_AT_EPOCH": 98169, "BSTAR": 0.0028978562, "MEAN_MOTION_DOT": 0.00011209, "MEAN_MOTION_DDOT": 0}, "tle": {"line1": "1 29906U 99025HC  25347.54888881  .00011209  00000+0  28979-2 0  9991", "line2": "2 29906  98.7048  90.9209 0036982 146.8794 213.4725 14.49663322981697"}}, "geometry": {"type": "Point", "coordinates": [85.71204951383984, 34.30156671572359]}}, {"type": "Feature", "properties": {"norad_id": 29907, "name": "FENGYUN 1C DEB", "group": "fengyun-1c-debris", "lat": -32.86555294164358, "lon": 60.96510170571704, "alt_km": 850.5333008594489, "timestamp": "2025-12-14T07:33:19.749654+00:00", "meta": {"OBJECT_NAME": "FENGYUN 1C DEB", "OBJECT_ID": "1999-025HD", "EPOCH": "2025-12-13T17:01:55.691904", "MEAN_MOTION": 14.11640986, "ECCENTRICITY": 0.00840252, "INCLINATION": 99.1119, "RA_OF_ASC_NODE": 54.3992, "ARG_OF_PERICENTER": 246.7564, "MEAN_ANOMALY": 245.4849, "EPHEMERIS_TYPE": 0, "CLASSIFICATION_TYPE": "U", "NORAD_CAT_ID": 29907, "ELEMENT_SET_NO": 999, "REV_AT_EPOCH": 96612, "BSTAR": 0.0020091452, "MEAN_MOTION_DOT": 3.731e-05, "MEAN_MOTION_DDOT": 0}, "tle": {"line1": "1 29907U 99025HD  25347.70967236  .00003731  00000+0  20091-2 0  9990", "line2": "2 29907  99.1119  54.3992 0084025 246.7564 245.4849 14.11640986966124"}}, "geometry": {"type": "Point", "coordinates": [60.96510170571704, -32.86555294164358]}}, {"type": "Feature", "properties": {"norad_id": 29909, "name": "FENGYUN 1C DEB", "group": "fengyun-1c-debris", "lat": 36.87967736192409, "lon": -81.28502050750933, "alt_km": 724.3169956673746, "timestamp": "2025-12-14T07:33:19.749664+00:00", "meta": {"OBJECT_NAME": "FENGYUN 1C DEB", "OBJECT_ID": "1999-025HF", "EPOCH": "2025-12-12T19:11:51.981216", "MEAN_MOTION": 14.55127835, "ECCENTRICITY": 0.00382681, "INCLINATION": 98.6344, "RA_OF_ASC_NODE": 90.6042, "ARG_OF_PERICENTER": 15.0279, "MEAN_ANOMALY": 115.9362, "EPHEMERIS_TYPE": 0, "CLASSIFICATION_TYPE": "U", "NORAD_CAT_ID": 29909, "ELEMENT_SET_NO": 999, "REV_AT_EPOCH": 98406, "BSTAR": 0.0030092185, "MEAN_MOTION_DOT": 0.00013095, "MEAN_MOTION_DDOT": 0}, "tle": {"line1": "1 29909U 99025HF  25346.79990719  .00013095  00000+0  30092-2 0  9998", "line2": "2 29909  98.6344  90.6042 0038268  15.0279 115.9362 14.55127835984062"}}, "geometry": {"type": "Point", "coordinates": [-81.28502050750933, 36.87967736192409]}}, {"type": "Feature", "properties": {"norad_id": 29911, "name": "FENGYUN 1C DEB", "group": "fengyun-1c-debris", "lat": 78.18264131745491, "lon": -15.753982935117014, "alt_km": 813.3192860672243, "timestamp": "2025-12-14T07:33:19.749674+00:00", "meta": {"OBJECT_NAME": "FENGYUN 1C DEB", "OBJECT_ID": "1999-025HH", "EPOCH": "2025-12-13T14:51:43.987968", "MEAN_MOTION": 14.18858319, "ECCENTRICITY": 0.0027457, "INCLINATION": 98.7159, "RA_OF_ASC_NODE": 30.7168, "ARG_OF_PERICENTER": 148.541, "MEAN_ANOMALY": 342.941, "EPHEMERIS_TYPE": 0, "CLASSIFICATION_TYPE": "U", "NORAD_CAT_ID": 29911, "ELEMENT_SET_NO": 999, "REV_AT_EPOCH": 97443, "BSTAR": 0.00097084265, "MEAN_MOTION_DOT": 1.985e-05, "MEAN_MOTION_DDOT": 0}, "tle": {"line1": "1 29911U 99025HH  25347.61925912  .00001985  00000+0  97084-3 0  9996", "line2": "2 29911  98.7159  30.7168 0027457 148.5410 342.9410 14.18858319974434"}}, "geometry": {"type": "Point", "coordinates": [-15.753982935117014, 78.18264131745491]}}, {"type": "Feature", "properties": {"norad_id": 29912, "name": "FENGYUN 1C DEB", "group": "fengyun-1c-debris", "lat": 3.4472023667010765, "lon": -93.66859063381376, "alt_km": 726.8157215220972, "timestamp": "2025-12-14T07:33:19.749684+00:00", "meta": {"OBJECT_NAME": "FENGYUN 1C DEB", "OBJECT_ID": "1999-025HJ", "EPOCH": "2025-12-13T06:01:44.190624", "MEAN_MOTION": 14.42997852, "ECCENTRICITY": 0.00430398, "INCLINATION": 98.7377, "RA_OF_ASC_NODE": 84.7105, "ARG_OF_PERICENTER": 217.6627, "MEAN_ANOMALY": 196.9478, "EPHEMERIS_TYPE": 0, "CLASSIFICATION_TYPE": "U", "NORAD_CAT_ID": 29912, "ELEMENT_SET_NO": 999, "REV_AT_EPOCH": 98046, "BSTAR": 0.0038386397, "MEAN_MOTION_DOT": 0.00012974, "MEAN_MOTION_DDOT": 0}, "tle": {"line1": "1 29912U 99025HJ  25347.25120591  .00012974  00000+0  38386-2 0  9996", "line2": "2 29912  98.7377  84.7105 0043039 217.6627 196.9478 14.42997852980463"}}, "geometry": {"type": "Point", "coordinates": [-93.66859063381376, 3.4472023667010765]}}, {"type": "Feature", "properties": {"norad_id": 29913, "name": "FENGYUN 1C DEB", "group": "fengyun-1c-debris", "lat": 79.8002915421326, "lon": -72.16354837827805, "alt_km": 905.7528666529888, "timestamp": "2025-12-14T07:33:19.749694+00:00", "meta": {"OBJECT_NAME": "FENGYUN 1C DEB", "OBJECT_ID": "1999-025HK", "EPOCH": "2025-12-13T12:58:00.630912", "MEAN_MOTION": 14.07383058, "ECCENTRICITY": 0.00618906, "INCLINATION": 98.7877, "RA_OF_ASC_NODE": 346.3698, "ARG_OF_PERICENTER": 269.1645, "MEAN_ANOMALY": 213.6059, "EPHEMERIS_TYPE": 0, "CLASSIFICATION_TYPE": "U", "NORAD_CAT_ID": 29913, "ELEMENT_SET_NO": 999, "REV_AT_EPOCH": 96976, "BSTAR": 0.0004884955, "MEAN_MOTION_DOT": 7.92e-06, "MEAN_MOTION_DDOT": 0}, "tle": {"line1": "1 29913U 99025HK  25347.54028508  .00000792  00000+0  48850-3 0  9997", "line2": "2 29913  98.7877 346.3698 0061890 269.1645 213.6059 14.07383058969760"}}, "geometry": {"type": "Point", "coordinates": [-72.16354837827805, 79.8002915421326]}}, {"type": "Feature", "properties": {"norad_id": 29914, "name": "FENGYUN 1C DEB", "group": "fengyun-1c-debris", "lat": -21.320266096392327, "lon": -166.63651485963976, "alt_km": 888.4720697406246, "timestamp": "2025-12-14T07:33:19.749704+00:00", "meta": {"OBJECT_NAME": "FENGYUN 1C DEB", "OBJECT_ID": "1999-025HL", "EPOCH": "2025-12-13T15:47:20.520096", "MEAN_MOTION": 14.03132919, "ECCENTRICITY": 0.00366429, "INCLINATION": 98.8446, "RA_OF_ASC_NODE": 16.2091, "ARG_OF_PERICENTER": 112.4564, "MEAN_ANOMALY": 12.0696, "EPHEMERIS_TYPE": 0, "CLASSIFICATION_TYPE": "U", "NORAD_CAT_ID": 29914, "ELEMENT_SET_NO": 999, "REV_AT_EPOCH": 96799, "BSTAR": 7.9472317e-05, "MEAN_MOTION_DOT": 8.2e-07, "MEAN_MOTION_DDOT": 0}, "tle": {"line1": "1 29914U 99025HL  25347.65787639  .00000082  00000+0  79472-4 0  9994", "line2": "2 29914  98.8446  16.2091 0036642 112.4564  12.0696 14.03132919967996"}}, "geometry": {"type": "Point", "coordinates": [-166.63651485963976, -21.320266096392327]}}, {"type": "Feature", "properties": {"norad_id": 29916, "name": "FENGYUN 1C DEB", "group": "fengyun-1c-debris", "lat": -56.34519304276485, "lon": 21.54002374043957, "alt_km": 916.1580130436923, "timestamp": "2025-12-14T07:33:19.749715+00:00", "meta": {"OBJECT_NAME": "FENGYUN 1C DEB", "OBJECT_ID": "1999-025HN", "EPOCH": "2025-12-13T07:09:09.063648", "MEAN_MOTION": 13.56985317, "ECCENTRICITY": 0.02712365, "INCLINATION": 99.1949, "RA_OF_ASC_NODE": 6.5086, "ARG_OF_PERICENTER": 257.0852, "MEAN_ANOMALY": 118.6419, "EPHEMERIS_TYPE": 0, "CLASSIFICATION_TYPE": "U", "NORAD_CAT_ID": 29916, "ELEMENT_SET_NO": 999, "REV_AT_EPOCH": 93460, "BSTAR": 0.00096913571, "MEAN_MOTION_DOT": 8.32e-06, "MEAN_MOTION_DDOT": 0}, "tle": {"line1": "1 29916U 99025HN  25347.29802157  .00000832  00000+0  96914-3 0  9991", "line2": "2 29916  99.1949   6.5086 0271236 257.0852 118.6419 13.56985317934605"}}, "geometry": {"type": "Point", "coordinates": [21.54002374043957, -56.34519304276485]}}, {"type": "Feature", "properties": {"norad_id": 29917, "name": "FENGYUN 1C DEB", "group": "fengyun-1c-debris", "lat": 71.44065523732398, "lon": 57.571558490149606, "alt_km": 831.3040094959824, "timestamp": "2025-12-14T07:33:19.749726+00:00", "meta": {"OBJECT_NAME": "FENGYUN 1C DEB", "OBJECT_ID": "1999-025HP", "EPOCH": "2025-12-13T13:36:48.930336", "MEAN_MOTION": 13.70412514, "ECCENTRICITY": 0.02228709, "INCLINATION": 98.8765, "RA_OF_ASC_NODE": 209.1421, "ARG_OF_PERICENTER": 122.1571, "MEAN_ANOMALY": 258.5787, "EPHEMERIS_TYPE": 0, "CLASSIFICATION_TYPE": "U", "NORAD_CAT_ID": 29917, "ELEMENT_SET_NO": 999, "REV_AT_EPOCH": 94142, "BSTAR": 0.0014025969, "MEAN_MOTION_DOT": 1.44e-05, "MEAN_MOTION_DDOT": 0}, "tle": {"line1": "1 29917U 99025HP  25347.56723299  .00001440  00000+0  14026-2 0  9990", "line2": "2 29917  98.8765 209.1421 0222870 122.1571 258.5787 13.70412514941422"}}, "geometry": {"type": "Point", "coordinates": [57.571558490149606, 71.44065523732398]}}, {"type": "Feature", "properties": {"norad_id": 29918, "name": "FENGYUN 1C DEB", "group": "fengyun-1c-debris", "lat": -65.5969754463025, "lon": 90.88350721880992, "alt_km": 778.1015097655336, "timestamp": "2025-12-14T07:33:19.749736+00:00", "meta": {"OBJECT_NAME": "FENGYUN 1C DEB", "OBJECT_ID": "1999-025HQ", "EPOCH": "2025-12-13T11:52:38.723232", "MEAN_MOTION": 14.33610282, "ECCENTRICITY": 0.00128923, "INCLINATION": 98.8546, "RA_OF_ASC_NODE": 69.9487, "ARG_OF_PERICENTER": 313.851, "MEAN_ANOMALY": 69.8652, "EPHEMERIS_TYPE": 0, "CLASSIFICATION_TYPE": "U", "NORAD_CAT_ID": 29918, "ELEMENT_SET_NO": 999, "REV_AT_EPOCH": 97805, "BSTAR": 0.0021815782, "MEAN_MOTION_DOT": 6.007e-05, "MEAN_MOTION_DDOT": 0}, "tle": {"line1": "1 29918U 99025HQ  25347.49489263  .00006007  00000+0  21816-2 0  9992", "line2": "2 29918  98.8546  69.9487 0012892 313.8510  69.8652 14.33610282978052"}}, "geometry": {"type": "Point", "coordinates": [90.88350721880992, -65.5969754463025]}}]}